start=new Date('2022-05-28T00:00:00.000Z').valueOf();
sats=[{"OBJECT_TYPE":"PAYLOAD","RA_OF_ASC_NODE":"302.1558","MEAN_ANOMALY":"161.0785","CENTER_NAME":"EARTH","SEMIMAJOR_AXIS":"6917.942","TLE_LINE1":"1 49460U 21104BE  22147.91668981  .00046489  00000-0  29214-2 0  9996","MEAN_MOTION":"15.08819741","ELEMENT_SET_NO":"999","PERIAPSIS":"537.872","OBJECT_ID":"2021-104BE","REF_FRAME":"TEME","SITE":"AFETR","NORAD_CAT_ID":"49460","PERIOD":"95.439","OBJECT_NAME":"STARLINK-3140","FILE":"3468079","REV_AT_EPOCH":"130","CLASSIFICATION_TYPE":"U","EPOCH":"2022-05-27T22:00:01.999584","ECCENTRICITY":"0.00027980","INCLINATION":"53.2165","EPHEMERIS_TYPE":"0","MEAN_MOTION_DOT":"0.00046489","GP_ID":"204716572","TIME_SYSTEM":"UTC","MEAN_MOTION_DDOT":"0.0000000000000","BSTAR":"0.00292140000000","APOAPSIS":"541.743","TLE_LINE2":"2 49460  53.2165 302.1558 0002798  25.4486 161.0785 15.08819741  1302","MEAN_ELEMENT_THEORY":"SGP4","DECAY_DATE":null,"LAUNCH_DATE":"2021-11-13","ARG_OF_PERICENTER":"25.4486","COUNTRY_CODE":"US","RCS_SIZE":"LARGE"},{"REF_FRAME":"TEME","SITE":"AFETR","NORAD_CAT_ID":"49724","OBJECT_ID":"2021-115A","PERIAPSIS":"538.236","ELEMENT_SET_NO":"999","TLE_LINE1":"1 49724U 21115A   22147.91668981 -.00023762  00000-0 -14793-2 0  9998","MEAN_MOTION":"15.08851593","EPOCH":"2022-05-27T22:00:01.999584","CLASSIFICATION_TYPE":"U","REV_AT_EPOCH":"130","PERIOD":"95.437","OBJECT_NAME":"STARLINK-3219","FILE":"3468079","RA_OF_ASC_NODE":"232.1408","OBJECT_TYPE":"PAYLOAD","SEMIMAJOR_AXIS":"6917.845","CENTER_NAME":"EARTH","MEAN_ANOMALY":"253.2432","LAUNCH_DATE":"2021-12-02","DECAY_DATE":null,"TLE_LINE2":"2 49724  53.2144 232.1408 0002131  33.1025 253.2432 15.08851593  1308","MEAN_ELEMENT_THEORY":"SGP4","APOAPSIS":"541.184","BSTAR":"-0.00147930000000","RCS_SIZE":"LARGE","COUNTRY_CODE":"US","ARG_OF_PERICENTER":"33.1025","MEAN_MOTION_DOT":"-0.00023762","EPHEMERIS_TYPE":"0","INCLINATION":"53.2144","ECCENTRICITY":"0.00021310","MEAN_MOTION_DDOT":"0.0000000000000","GP_ID":"204717833","TIME_SYSTEM":"UTC"},{"CENTER_NAME":"EARTH","MEAN_ANOMALY":"83.5273","SEMIMAJOR_AXIS":"6917.843","OBJECT_TYPE":"PAYLOAD","RA_OF_ASC_NODE":"232.1387","REV_AT_EPOCH":"130","FILE":"3468079","PERIOD":"95.437","OBJECT_NAME":"STARLINK-3218","EPOCH":"2022-05-27T22:00:01.999584","CLASSIFICATION_TYPE":"U","MEAN_MOTION":"15.08852088","TLE_LINE1":"1 49725U 21115B   22147.91668981 -.00018176  00000-0 -11263-2 0  9991","ELEMENT_SET_NO":"999","NORAD_CAT_ID":"49725","REF_FRAME":"TEME","SITE":"AFETR","PERIAPSIS":"537.839","OBJECT_ID":"2021-115B","MEAN_MOTION_DDOT":"0.0000000000000","TIME_SYSTEM":"UTC","GP_ID":"204716591","ECCENTRICITY":"0.00027020","INCLINATION":"53.2175","MEAN_MOTION_DOT":"-0.00018176","EPHEMERIS_TYPE":"0","COUNTRY_CODE":"US","ARG_OF_PERICENTER":"22.7789","RCS_SIZE":"LARGE","MEAN_ELEMENT_THEORY":"SGP4","TLE_LINE2":"2 49725  53.2175 232.1387 0002702  22.7789  83.5273 15.08852088  1301","APOAPSIS":"541.578","BSTAR":"-0.00112630000000","LAUNCH_DATE":"2021-12-02","DECAY_DATE":null},{"ELEMENT_SET_NO":"999","TLE_LINE1":"1 49726U 21115C   22147.91668981 -.00025682  00000-0 -16007-2 0  9993","MEAN_MOTION":"15.08851568","PERIAPSIS":"538.191","OBJECT_ID":"2021-115C","SITE":"AFETR","REF_FRAME":"TEME","NORAD_CAT_ID":"49726","PERIOD":"95.437","OBJECT_NAME":"STARLINK-3237","FILE":"3467940","REV_AT_EPOCH":"2790","CLASSIFICATION_TYPE":"U","EPOCH":"2022-05-27T22:00:01.999584","OBJECT_TYPE":"PAYLOAD","RA_OF_ASC_NODE":"242.1472","MEAN_ANOMALY":"288.3643","CENTER_NAME":"EARTH","SEMIMAJOR_AXIS":"6917.845","APOAPSIS":"541.229","BSTAR":"-0.00160070000000","TLE_LINE2":"2 49726  53.2173 242.1472 0002196  28.1701 288.3643 15.08851568 27909","MEAN_ELEMENT_THEORY":"SGP4","DECAY_DATE":null,"LAUNCH_DATE":"2021-12-02","ARG_OF_PERICENTER":"28.1701","COUNTRY_CODE":"US","RCS_SIZE":"LARGE","ECCENTRICITY":"0.00021960","INCLINATION":"53.2173","EPHEMERIS_TYPE":"0","MEAN_MOTION_DOT":"-0.00025682","TIME_SYSTEM":"UTC","GP_ID":"204691899","MEAN_MOTION_DDOT":"0.0000000000000"},{"COUNTRY_CODE":"US","ARG_OF_PERICENTER":"36.1410","RCS_SIZE":"LARGE","MEAN_ELEMENT_THEORY":"SGP4","TLE_LINE2":"2 49727  53.2168 242.1502 0002281  36.1410 260.3704 15.08860630  1303","APOAPSIS":"541.260","BSTAR":"-0.00139130000000","LAUNCH_DATE":"2021-12-02","DECAY_DATE":null,"MEAN_MOTION_DDOT":"0.0000000000000","GP_ID":"204718089","TIME_SYSTEM":"UTC","ECCENTRICITY":"0.00022810","INCLINATION":"53.2168","MEAN_MOTION_DOT":"-0.00022376","EPHEMERIS_TYPE":"0","REV_AT_EPOCH":"130","FILE":"3468079","OBJECT_NAME":"STARLINK-3242","PERIOD":"95.436","EPOCH":"2022-05-27T22:00:01.999584","CLASSIFICATION_TYPE":"U","TLE_LINE1":"1 49727U 21115D   22147.91668981 -.00022376  00000-0 -13913-2 0  9994","MEAN_MOTION":"15.08860630","ELEMENT_SET_NO":"999","NORAD_CAT_ID":"49727","REF_FRAME":"TEME","SITE":"AFETR","OBJECT_ID":"2021-115D","PERIAPSIS":"538.104","CENTER_NAME":"EARTH","MEAN_ANOMALY":"260.3704","SEMIMAJOR_AXIS":"6917.817","OBJECT_TYPE":"PAYLOAD","RA_OF_ASC_NODE":"242.1502"},{"CLASSIFICATION_TYPE":"U","EPOCH":"2022-05-27T22:00:01.999584","OBJECT_NAME":"STARLINK-3240","PERIOD":"95.436","FILE":"3468079","REV_AT_EPOCH":"130","PERIAPSIS":"538.362","OBJECT_ID":"2021-115E","REF_FRAME":"TEME","SITE":"AFETR","NORAD_CAT_ID":"49728","TLE_LINE1":"1 49728U 21115E   22147.91668981 -.00022728  00000-0 -14136-2 0  9994","ELEMENT_SET_NO":"999","MEAN_MOTION":"15.08859925","SEMIMAJOR_AXIS":"6917.819","MEAN_ANOMALY":"230.9662","CENTER_NAME":"EARTH","RA_OF_ASC_NODE":"242.1494","OBJECT_TYPE":"PAYLOAD","RCS_SIZE":"LARGE","ARG_OF_PERICENTER":"45.5985","COUNTRY_CODE":"US","DECAY_DATE":null,"LAUNCH_DATE":"2021-12-02","APOAPSIS":"541.006","BSTAR":"-0.00141360000000","TLE_LINE2":"2 49728  53.2151 242.1494 0001911  45.5985 230.9662 15.08859925  1307","MEAN_ELEMENT_THEORY":"SGP4","GP_ID":"204718333","TIME_SYSTEM":"UTC","MEAN_MOTION_DDOT":"0.0000000000000","EPHEMERIS_TYPE":"0","MEAN_MOTION_DOT":"-0.00022728","INCLINATION":"53.2151","ECCENTRICITY":"0.00019110"},{"MEAN_ELEMENT_THEORY":"SGP4","TLE_LINE2":"2 49729  53.2164 242.1491 0002971  23.1900 233.2984 15.08858277  1307","APOAPSIS":"541.745","BSTAR":"-0.00121210000000","LAUNCH_DATE":"2021-12-02","DECAY_DATE":null,"COUNTRY_CODE":"US","ARG_OF_PERICENTER":"23.1900","RCS_SIZE":"LARGE","INCLINATION":"53.2164","ECCENTRICITY":"0.00029710","MEAN_MOTION_DOT":"-0.00019539","EPHEMERIS_TYPE":"0","MEAN_MOTION_DDOT":"0.0000000000000","GP_ID":"204717091","TIME_SYSTEM":"UTC","MEAN_MOTION":"15.08858277","TLE_LINE1":"1 49729U 21115F   22147.91668981 -.00019539  00000-0 -12121-2 0  9993","ELEMENT_SET_NO":"999","NORAD_CAT_ID":"49729","REF_FRAME":"TEME","SITE":"AFETR","OBJECT_ID":"2021-115F","PERIAPSIS":"537.634","REV_AT_EPOCH":"130","FILE":"3468079","PERIOD":"95.436","OBJECT_NAME":"STARLINK-3251","EPOCH":"2022-05-27T22:00:01.999584","CLASSIFICATION_TYPE":"U","OBJECT_TYPE":"PAYLOAD","RA_OF_ASC_NODE":"242.1491","CENTER_NAME":"EARTH","MEAN_ANOMALY":"233.2984","SEMIMAJOR_AXIS":"6917.825"},{"ECCENTRICITY":"0.00024120","INCLINATION":"53.2155","EPHEMERIS_TYPE":"0","MEAN_MOTION_DOT":"-0.00021079","TIME_SYSTEM":"UTC","GP_ID":"204717341","MEAN_MOTION_DDOT":"0.0000000000000","BSTAR":"-0.00130990000000","APOAPSIS":"541.396","TLE_LINE2":"2 49730  53.2155 242.1415 0002412  28.4093 188.0819 15.08846009  1300","MEAN_ELEMENT_THEORY":"SGP4","DECAY_DATE":null,"LAUNCH_DATE":"2021-12-02","ARG_OF_PERICENTER":"28.4093","COUNTRY_CODE":"US","RCS_SIZE":"LARGE","OBJECT_TYPE":"PAYLOAD","RA_OF_ASC_NODE":"242.1415","MEAN_ANOMALY":"188.0819","CENTER_NAME":"EARTH","SEMIMAJOR_AXIS":"6917.862","TLE_LINE1":"1 49730U 21115G   22147.91668981 -.00021079  00000-0 -13099-2 0  9992","ELEMENT_SET_NO":"999","MEAN_MOTION":"15.08846009","OBJECT_ID":"2021-115G","PERIAPSIS":"538.058","SITE":"AFETR","REF_FRAME":"TEME","NORAD_CAT_ID":"49730","PERIOD":"95.437","OBJECT_NAME":"STARLINK-3249","FILE":"3468079","REV_AT_EPOCH":"130","CLASSIFICATION_TYPE":"U","EPOCH":"2022-05-27T22:00:01.999584"},{"ECCENTRICITY":"0.00026780","INCLINATION":"53.2151","EPHEMERIS_TYPE":"0","MEAN_MOTION_DOT":"-0.00023924","TIME_SYSTEM":"UTC","GP_ID":"204717590","MEAN_MOTION_DDOT":"0.0000000000000","APOAPSIS":"541.581","BSTAR":"-0.00148970000000","TLE_LINE2":"2 49731  53.2151 242.1499 0002678  26.3369 210.1698 15.08845445  1301","MEAN_ELEMENT_THEORY":"SGP4","DECAY_DATE":null,"LAUNCH_DATE":"2021-12-02","ARG_OF_PERICENTER":"26.3369","COUNTRY_CODE":"US","RCS_SIZE":"LARGE","OBJECT_TYPE":"PAYLOAD","RA_OF_ASC_NODE":"242.1499","MEAN_ANOMALY":"210.1698","CENTER_NAME":"EARTH","SEMIMAJOR_AXIS":"6917.864","TLE_LINE1":"1 49731U 21115H   22147.91668981 -.00023924  00000-0 -14897-2 0  9991","ELEMENT_SET_NO":"999","MEAN_MOTION":"15.08845445","PERIAPSIS":"537.876","OBJECT_ID":"2021-115H","REF_FRAME":"TEME","SITE":"AFETR","NORAD_CAT_ID":"49731","OBJECT_NAME":"STARLINK-3228","PERIOD":"95.437","FILE":"3468079","REV_AT_EPOCH":"130","CLASSIFICATION_TYPE":"U","EPOCH":"2022-05-27T22:00:01.999584"},{"OBJECT_TYPE":"PAYLOAD","RA_OF_ASC_NODE":"242.1371","MEAN_ANOMALY":"128.8003","CENTER_NAME":"EARTH","SEMIMAJOR_AXIS":"6917.787","TLE_LINE1":"1 49732U 21115J   22147.91668981 -.00030206  00000-0 -18861-2 0  9998","MEAN_MOTION":"15.08870437","ELEMENT_SET_NO":"999","PERIAPSIS":"538.118","OBJECT_ID":"2021-115J","SITE":"AFETR","REF_FRAME":"TEME","NORAD_CAT_ID":"49732","OBJECT_NAME":"STARLINK-3246","PERIOD":"95.436","FILE":"3468079","REV_AT_EPOCH":"130","CLASSIFICATION_TYPE":"U","EPOCH":"2022-05-27T22:00:01.999584","INCLINATION":"53.2145","ECCENTRICITY":"0.00022180","EPHEMERIS_TYPE":"0","MEAN_MOTION_DOT":"-0.00030206","GP_ID":"204717834","TIME_SYSTEM":"UTC","MEAN_MOTION_DDOT":"0.0000000000000","APOAPSIS":"541.187","BSTAR":"-0.00188610000000","TLE_LINE2":"2 49732  53.2145 242.1371 0002218  27.7740 128.8003 15.08870437  1306","MEAN_ELEMENT_THEORY":"SGP4","DECAY_DATE":null,"LAUNCH_DATE":"2021-12-02","ARG_OF_PERICENTER":"27.7740","COUNTRY_CODE":"US","RCS_SIZE":"LARGE"}];
